ONEWEB-0281             
1 48999U 21060AJ  24096.53844469 -.00000007  00000+0 -52911-4 0  9992
2 48999  87.9143  28.5161 0001954  72.3063 287.8282 13.16597279134012
ONEWEB-0282             
1 49000U 21060AK  24096.79651551  .00000042  00000+0  76946-4 0  9993
2 49000  87.9144  28.4817 0001473  85.3672 274.7627 13.16597083135348
ONEWEB-0283             
1 49001U 21060AL  24096.55744620 -.00000004  00000+0 -43233-4 0  9991
2 49001  87.9141  28.5362 0001577  75.1900 284.9406 13.16596670134009
ONEWEB-0284             
1 49002U 21060AM  24096.55111461 -.00000003  00000+0 -40531-4 0  9990
2 49002  87.9134  28.5254 0001674  85.4772 274.6551 13.16596498133982
ONEWEB-0285             
1 49075U 21075A   24096.58881456  .00000318  00000+0  84979-3 0  9997
2 49075  87.8983 150.4317 0002045 101.2944 258.8414 13.12444054129937
ONEWEB-0286             
1 49076U 21075B   24096.56009935 -.00000414  00000+0 -11876-2 0  9994
2 49076  87.8980 150.4421 0002469  96.2297 263.9113 13.12433283129288
ONEWEB-0287             
1 49077U 21075C   24096.74968096 -.00000017  00000+0 -76873-4 0  9996
2 49077  87.9234 165.5301 0002426 106.3084 253.8314 13.17649901128928
ONEWEB-0288             
1 49078U 21075D   24096.84914645  .00000019  00000+0  18413-4 0  9995
2 49078  87.8978 150.3886 0002221 102.1692 257.9686 13.12442912130934
